STARLINK-37117          
1 68212U 26053F   26087.91668981  .00003122  00000+0  17058-4 0  9998
2 68212  97.2840 323.1131 0001452  93.6676 304.1740 15.80783947  3109
STARLINK-37116          
1 68213U 26053G   26087.91668981 -.00100824  00000+0 -53106-3 0  9991
2 68213  97.2840 323.1145 0001658 104.0265 298.0713 15.80841759  3101
STARLINK-35854          
1 68214U 26053H   26087.91668981 -.00066330  00000+0 -34803-3 0  9998
2 68214  97.2840 323.1161 0001393  99.3255 307.0405 15.80824824  2866
STARLINK-36272          
1 68215U 26053J   26087.91668981 -.00086330  00000+0 -45418-3 0  9995
2 68215  97.2839 323.1179 0001486 100.7924 309.8636 15.80827273  2998
STARLINK-37014          
1 68216U 26053K   26087.91668981 -.00043399  00000+0 -22704-3 0  9997
2 68216  97.2844 323.1200 0001446 108.6973 306.2365 15.80807149  3101
STARLINK-37011          
1 68217U 26053L   26087.91668981 -.00010407  00000+0 -53708-4 0  9991
2 68217  97.2844 323.1223 0001587 105.6783 313.5277 15.80794217  3103
STARLINK-37108          
1 68218U 26053M   26087.91668981 -.00002535  00000+0 -12510-4 0  9991
2 68218  97.2840 323.1236 0001541 103.4229 320.0439 15.80796019  3100
STARLINK-37106          
1 68219U 26053N   26087.91668981  .00005155  00000+0  27637-4 0  9997
2 68219  97.2833 323.1255 0001243 101.6859 326.0519 15.80814557  3105
STARLINK-37030          
1 68220U 26053P   26087.91668981  .00018150  00000+0  95321-4 0  9993
2 68220  97.2832 323.1288 0001563  99.7229 336.5593 15.80810539  3109
STARLINK-37012          
1 68221U 26053Q   26087.91668981 -.00058429  00000+0 -30623-3 0  9992
2 68221  97.2832 323.1271 0001370  88.6545 343.3687 15.80823401  3108
STARLINK-37110          
1 68222U 26053R   26087.91668981 -.00043208  00000+0 -22577-3 0  9991
2 68222  97.2832 323.1301 0001353  97.9350 342.6068 15.80832947  3101
STARLINK-37025          
1 68223U 26053S   26087.91668981  .00004064  00000+0  21959-4 0  9991
2 68223  97.2833 323.1316 0001215 104.1003 340.7386 15.80804193  3106
STARLINK-36977          
1 68224U 26053T   26087.91668981 -.00000479  00000+0 -17630-5 0  9992
2 68224  97.2827 323.1330 0001218  89.8160 359.3048 15.80815870  2993
STARLINK-36960          
1 68225U 26053U   26087.91668981 -.00003083  00000+0 -15368-4 0  9992
2 68225  97.2812 323.1345 0001565  97.4003 355.9786 15.80806022  3081
STARLINK-37038          
1 68226U 26053V   26087.91668981  .00039697  00000+0  20730-3 0  9999
2 68226  97.2813 323.1381 0001526  99.1749   2.7502 15.80788029  3085
STARLINK-37083          
1 68227U 26053W   26087.91668981 -.00028021  00000+0 -14594-3 0  9992
2 68227  97.2812 323.1368 0001729 114.2099 343.4330 15.80825766  3109
