[{"OBJECT_NAME":"STARLINK-37117","OBJECT_ID":"2026-053F","EPOCH":"2026-03-28T22:00:01.999584","MEAN_MOTION":15.80783947,"ECCENTRICITY":0.00014522,"INCLINATION":97.284,"RA_OF_ASC_NODE":323.1131,"ARG_OF_PERICENTER":93.6676,"MEAN_ANOMALY":304.174,"EPHEMERIS_TYPE":0,"CLASSIFICATION_TYPE":"U","NORAD_CAT_ID":68212,"ELEMENT_SET_NO":999,"REV_AT_EPOCH":310,"BSTAR":1.7058016e-5,"MEAN_MOTION_DOT":3.122e-5,"MEAN_MOTION_DDOT":0},{"OBJECT_NAME":"STARLINK-37116","OBJECT_ID":"2026-053G","EPOCH":"2026-03-28T22:00:01.999584","MEAN_MOTION":15.80841759,"ECCENTRICITY":0.00016582,"INCLINATION":97.284,"RA_OF_ASC_NODE":323.1145,"ARG_OF_PERICENTER":104.0265,"MEAN_ANOMALY":298.0713,"EPHEMERIS_TYPE":0,"CLASSIFICATION_TYPE":"U","NORAD_CAT_ID":68213,"ELEMENT_SET_NO":999,"REV_AT_EPOCH":310,"BSTAR":-0.00053106244,"MEAN_MOTION_DOT":-0.00100824,"MEAN_MOTION_DDOT":0},{"OBJECT_NAME":"STARLINK-35854","OBJECT_ID":"2026-053H","EPOCH":"2026-03-28T22:00:01.999584","MEAN_MOTION":15.80824824,"ECCENTRICITY":0.00013936,"INCLINATION":97.284,"RA_OF_ASC_NODE":323.1161,"ARG_OF_PERICENTER":99.3255,"MEAN_ANOMALY":307.0405,"EPHEMERIS_TYPE":0,"CLASSIFICATION_TYPE":"U","NORAD_CAT_ID":68214,"ELEMENT_SET_NO":999,"REV_AT_EPOCH":286,"BSTAR":-0.00034803363,"MEAN_MOTION_DOT":-0.0006633,"MEAN_MOTION_DDOT":0},{"OBJECT_NAME":"STARLINK-36272","OBJECT_ID":"2026-053J","EPOCH":"2026-03-28T22:00:01.999584","MEAN_MOTION":15.80827273,"ECCENTRICITY":0.00014869,"INCLINATION":97.2839,"RA_OF_ASC_NODE":323.1179,"ARG_OF_PERICENTER":100.7924,"MEAN_ANOMALY":309.8636,"EPHEMERIS_TYPE":0,"CLASSIFICATION_TYPE":"U","NORAD_CAT_ID":68215,"ELEMENT_SET_NO":999,"REV_AT_EPOCH":299,"BSTAR":-0.00045417728,"MEAN_MOTION_DOT":-0.0008633,"MEAN_MOTION_DDOT":0},{"OBJECT_NAME":"STARLINK-37014","OBJECT_ID":"2026-053K","EPOCH":"2026-03-28T22:00:01.999584","MEAN_MOTION":15.80807149,"ECCENTRICITY":0.00014469,"INCLINATION":97.2844,"RA_OF_ASC_NODE":323.12,"ARG_OF_PERICENTER":108.6973,"MEAN_ANOMALY":306.2365,"EPHEMERIS_TYPE":0,"CLASSIFICATION_TYPE":"U","NORAD_CAT_ID":68216,"ELEMENT_SET_NO":999,"REV_AT_EPOCH":310,"BSTAR":-0.00022704293,"MEAN_MOTION_DOT":-0.00043399,"MEAN_MOTION_DDOT":0},{"OBJECT_NAME":"STARLINK-37011","OBJECT_ID":"2026-053L","EPOCH":"2026-03-28T22:00:01.999584","MEAN_MOTION":15.80794217,"ECCENTRICITY":0.00015874,"INCLINATION":97.2844,"RA_OF_ASC_NODE":323.1223,"ARG_OF_PERICENTER":105.6783,"MEAN_ANOMALY":313.5277,"EPHEMERIS_TYPE":0,"CLASSIFICATION_TYPE":"U","NORAD_CAT_ID":68217,"ELEMENT_SET_NO":999,"REV_AT_EPOCH":310,"BSTAR":-5.3707816e-5,"MEAN_MOTION_DOT":-0.00010407,"MEAN_MOTION_DDOT":0},{"OBJECT_NAME":"STARLINK-37108","OBJECT_ID":"2026-053M","EPOCH":"2026-03-28T22:00:01.999584","MEAN_MOTION":15.80796019,"ECCENTRICITY":0.00015413,"INCLINATION":97.284,"RA_OF_ASC_NODE":323.1236,"ARG_OF_PERICENTER":103.4229,"MEAN_ANOMALY":320.0439,"EPHEMERIS_TYPE":0,"CLASSIFICATION_TYPE":"U","NORAD_CAT_ID":68218,"ELEMENT_SET_NO":999,"REV_AT_EPOCH":310,"BSTAR":-1.250962e-5,"MEAN_MOTION_DOT":-2.535e-5,"MEAN_MOTION_DDOT":0},{"OBJECT_NAME":"STARLINK-37106","OBJECT_ID":"2026-053N","EPOCH":"2026-03-28T22:00:01.999584","MEAN_MOTION":15.80814557,"ECCENTRICITY":0.00012437,"INCLINATION":97.2833,"RA_OF_ASC_NODE":323.1255,"ARG_OF_PERICENTER":101.6859,"MEAN_ANOMALY":326.0519,"EPHEMERIS_TYPE":0,"CLASSIFICATION_TYPE":"U","NORAD_CAT_ID":68219,"ELEMENT_SET_NO":999,"REV_AT_EPOCH":310,"BSTAR":2.7636676e-5,"MEAN_MOTION_DOT":5.155e-5,"MEAN_MOTION_DDOT":0},{"OBJECT_NAME":"STARLINK-37030","OBJECT_ID":"2026-053P","EPOCH":"2026-03-28T22:00:01.999584","MEAN_MOTION":15.80810539,"ECCENTRICITY":0.00015635,"INCLINATION":97.2832,"RA_OF_ASC_NODE":323.1288,"ARG_OF_PERICENTER":99.7229,"MEAN_ANOMALY":336.5593,"EPHEMERIS_TYPE":0,"CLASSIFICATION_TYPE":"U","NORAD_CAT_ID":68220,"ELEMENT_SET_NO":999,"REV_AT_EPOCH":310,"BSTAR":9.5321073e-5,"MEAN_MOTION_DOT":0.0001815,"MEAN_MOTION_DDOT":0},{"OBJECT_NAME":"STARLINK-37012","OBJECT_ID":"2026-053Q","EPOCH":"2026-03-28T22:00:01.999584","MEAN_MOTION":15.80823401,"ECCENTRICITY":0.00013706,"INCLINATION":97.2832,"RA_OF_ASC_NODE":323.1271,"ARG_OF_PERICENTER":88.6545,"MEAN_ANOMALY":343.3687,"EPHEMERIS_TYPE":0,"CLASSIFICATION_TYPE":"U","NORAD_CAT_ID":68221,"ELEMENT_SET_NO":999,"REV_AT_EPOCH":310,"BSTAR":-0.00030623397,"MEAN_MOTION_DOT":-0.00058429,"MEAN_MOTION_DDOT":0},{"OBJECT_NAME":"STARLINK-37110","OBJECT_ID":"2026-053R","EPOCH":"2026-03-28T22:00:01.999584","MEAN_MOTION":15.80832947,"ECCENTRICITY":0.00013532,"INCLINATION":97.2832,"RA_OF_ASC_NODE":323.1301,"ARG_OF_PERICENTER":97.935,"MEAN_ANOMALY":342.6068,"EPHEMERIS_TYPE":0,"CLASSIFICATION_TYPE":"U","NORAD_CAT_ID":68222,"ELEMENT_SET_NO":999,"REV_AT_EPOCH":310,"BSTAR":-0.00022577464,"MEAN_MOTION_DOT":-0.00043208,"MEAN_MOTION_DDOT":0},{"OBJECT_NAME":"STARLINK-37025","OBJECT_ID":"2026-053S","EPOCH":"2026-03-28T22:00:01.999584","MEAN_MOTION":15.80804193,"ECCENTRICITY":0.00012151,"INCLINATION":97.2833,"RA_OF_ASC_NODE":323.1316,"ARG_OF_PERICENTER":104.1003,"MEAN_ANOMALY":340.7386,"EPHEMERIS_TYPE":0,"CLASSIFICATION_TYPE":"U","NORAD_CAT_ID":68223,"ELEMENT_SET_NO":999,"REV_AT_EPOCH":310,"BSTAR":2.1959416e-5,"MEAN_MOTION_DOT":4.064e-5,"MEAN_MOTION_DDOT":0},{"OBJECT_NAME":"STARLINK-36977","OBJECT_ID":"2026-053T","EPOCH":"2026-03-28T22:00:01.999584","MEAN_MOTION":15.8081587,"ECCENTRICITY":0.00012185,"INCLINATION":97.2827,"RA_OF_ASC_NODE":323.133,"ARG_OF_PERICENTER":89.816,"MEAN_ANOMALY":359.3048,"EPHEMERIS_TYPE":0,"CLASSIFICATION_TYPE":"U","NORAD_CAT_ID":68224,"ELEMENT_SET_NO":999,"REV_AT_EPOCH":299,"BSTAR":-1.763049e-6,"MEAN_MOTION_DOT":-4.79e-6,"MEAN_MOTION_DDOT":0},{"OBJECT_NAME":"STARLINK-36960","OBJECT_ID":"2026-053U","EPOCH":"2026-03-28T22:00:01.999584","MEAN_MOTION":15.80806022,"ECCENTRICITY":0.00015656,"INCLINATION":97.2812,"RA_OF_ASC_NODE":323.1345,"ARG_OF_PERICENTER":97.4003,"MEAN_ANOMALY":355.9786,"EPHEMERIS_TYPE":0,"CLASSIFICATION_TYPE":"U","NORAD_CAT_ID":68225,"ELEMENT_SET_NO":999,"REV_AT_EPOCH":308,"BSTAR":-1.5367843e-5,"MEAN_MOTION_DOT":-3.083e-5,"MEAN_MOTION_DDOT":0},{"OBJECT_NAME":"STARLINK-37038","OBJECT_ID":"2026-053V","EPOCH":"2026-03-28T22:00:01.999584","MEAN_MOTION":15.80788029,"ECCENTRICITY":0.00015261,"INCLINATION":97.2813,"RA_OF_ASC_NODE":323.1381,"ARG_OF_PERICENTER":99.1749,"MEAN_ANOMALY":2.7502,"EPHEMERIS_TYPE":0,"CLASSIFICATION_TYPE":"U","NORAD_CAT_ID":68226,"ELEMENT_SET_NO":999,"REV_AT_EPOCH":308,"BSTAR":0.00020730453,"MEAN_MOTION_DOT":0.00039697,"MEAN_MOTION_DDOT":0},{"OBJECT_NAME":"STARLINK-37083","OBJECT_ID":"2026-053W","EPOCH":"2026-03-28T22:00:01.999584","MEAN_MOTION":15.80825766,"ECCENTRICITY":0.00017297,"INCLINATION":97.2812,"RA_OF_ASC_NODE":323.1368,"ARG_OF_PERICENTER":114.2099,"MEAN_ANOMALY":343.433,"EPHEMERIS_TYPE":0,"CLASSIFICATION_TYPE":"U","NORAD_CAT_ID":68227,"ELEMENT_SET_NO":999,"REV_AT_EPOCH":310,"BSTAR":-0.00014594474,"MEAN_MOTION_DOT":-0.00028021,"MEAN_MOTION_DDOT":0}]
